STARLINK-2061           
1 48312U 21036AN  24037.89087387  .00001621  00000+0  12766-3 0  9990
2 48312  53.0556 271.4739 0001718 117.1082 243.0083 15.06404851153355
STARLINK-2541           
1 48313U 21036AP  24037.82084267  .00001175  00000+0  97726-4 0  9992
2 48313  53.0560 271.7858 0001663 114.7536 245.3626 15.06406428153330
STARLINK-2549           
1 48314U 21036AQ  24037.94985656  .00002325  00000+0  17488-3 0  9992
2 48314  53.0543 271.2064 0001599 107.2257 252.8907 15.06406334153354
STARLINK-2506           
1 48315U 21036AR  24037.87981591  .00006047  00000+0  42426-3 0  9994
2 48315  53.0546 271.5148 0001544 103.2558 256.8603 15.06421752153341
STARLINK-2507           
1 48316U 21036AS  24038.00882675  .00001424  00000+0  11447-3 0  9997
2 48316  53.0542 270.9304 0001429  82.3557 277.7594 15.06403670154018
STARLINK-2513           
1 48317U 21036AT  24038.07148558  .00001033  00000+0  88204-4 0  9992
2 48317  53.0536 270.6485 0001344 103.2549 256.8590 15.06398364154027
STARLINK-2509           
1 48318U 21036AU  24038.06318949  .00012289  00000+0  84207-3 0  9998
2 48318  53.0531 280.6902 0001343  93.6958 266.4185 15.06416159153875
STARLINK-2512           
1 48319U 21036AV  24037.92587017  .00012195  00000+0  83590-3 0  9997
2 48319  53.0534 281.2966 0001374  83.9061 276.2084 15.06410561153213
STARLINK-2029           
1 48320U 21036AW  24038.05582498  .00002978  00000+0  21872-3 0  9995
2 48320  53.0544 280.7261 0001579  91.1851 268.9319 15.06407501153874
STARLINK-2457           
1 48321U 21036AX  24038.05213864  .00011028  00000+0  75787-3 0  9994
2 48321  53.0536 280.7418 0001521  84.0226 276.0936 15.06411329153827
STARLINK-2477           
1 48322U 21036AY  24038.04845743  .00009268  00000+0  64023-3 0  9995
2 48322  53.0540 280.7621 0001432  91.9580 268.1573 15.06403071153824
STARLINK-2515           
1 48323U 21036AZ  24037.91206683  .00004689  00000+0  33335-3 0  9999
2 48323  53.0549 281.3730 0001479 107.5671 252.5480 15.06412373153210
STARLINK-2527           
1 48324U 21036BA  24038.25001157  .01360797  00000+0  52419-1 0  9995
2 48324  53.0546 279.4667 0001274  74.4010 180.5402 15.23114022153850
STARLINK-2495           
1 48325U 21036BB  24037.90470077  .00002617  00000+0  19447-3 0  9997
2 48325  53.0551 281.4063 0001317  92.6431 267.4709 15.06402929153219
STARLINK-2498           
1 48326U 21036BC  24038.10005130  .00005245  00000+0  37064-3 0  9990
2 48326  53.0540 280.5260 0001347  89.4207 270.6937 15.06409140153834
STARLINK-2502           
1 48327U 21036BD  24037.89732904  .00007715  00000+0  53620-3 0  9992
2 48327  53.0540 281.4380 0001454  81.3587 278.7566 15.06406243153219
