[{"OBJECT_NAME":"STARLINK-2061","OBJECT_ID":"2021-036AN","EPOCH":"2024-02-06T21:22:51.502368","MEAN_MOTION":15.06404851,"ECCENTRICITY":0.0001718,"INCLINATION":53.0556,"RA_OF_ASC_NODE":271.4739,"ARG_OF_PERICENTER":117.1082,"MEAN_ANOMALY":243.0083,"EPHEMERIS_TYPE":0,"CLASSIFICATION_TYPE":"U","NORAD_CAT_ID":48312,"ELEMENT_SET_NO":999,"REV_AT_EPOCH":15335,"BSTAR":0.00012766,"MEAN_MOTION_DOT":1.621e-5,"MEAN_MOTION_DDOT":0},{"OBJECT_NAME":"STARLINK-2541","OBJECT_ID":"2021-036AP","EPOCH":"2024-02-06T19:42:00.806688","MEAN_MOTION":15.06406428,"ECCENTRICITY":0.0001663,"INCLINATION":53.056,"RA_OF_ASC_NODE":271.7858,"ARG_OF_PERICENTER":114.7536,"MEAN_ANOMALY":245.3626,"EPHEMERIS_TYPE":0,"CLASSIFICATION_TYPE":"U","NORAD_CAT_ID":48313,"ELEMENT_SET_NO":999,"REV_AT_EPOCH":15333,"BSTAR":9.7726e-5,"MEAN_MOTION_DOT":1.175e-5,"MEAN_MOTION_DDOT":0},{"OBJECT_NAME":"STARLINK-2549","OBJECT_ID":"2021-036AQ","EPOCH":"2024-02-06T22:47:47.606784","MEAN_MOTION":15.06406334,"ECCENTRICITY":0.0001599,"INCLINATION":53.0543,"RA_OF_ASC_NODE":271.2064,"ARG_OF_PERICENTER":107.2257,"MEAN_ANOMALY":252.8907,"EPHEMERIS_TYPE":0,"CLASSIFICATION_TYPE":"U","NORAD_CAT_ID":48314,"ELEMENT_SET_NO":999,"REV_AT_EPOCH":15335,"BSTAR":0.00017488,"MEAN_MOTION_DOT":2.325e-5,"MEAN_MOTION_DDOT":0},{"OBJECT_NAME":"STARLINK-2506","OBJECT_ID":"2021-036AR","EPOCH":"2024-02-06T21:06:56.094624","MEAN_MOTION":15.06421752,"ECCENTRICITY":0.0001544,"INCLINATION":53.0546,"RA_OF_ASC_NODE":271.5148,"ARG_OF_PERICENTER":103.2558,"MEAN_ANOMALY":256.8603,"EPHEMERIS_TYPE":0,"CLASSIFICATION_TYPE":"U","NORAD_CAT_ID":48315,"ELEMENT_SET_NO":999,"REV_AT_EPOCH":15334,"BSTAR":0.00042426,"MEAN_MOTION_DOT":6.047e-5,"MEAN_MOTION_DDOT":0},{"OBJECT_NAME":"STARLINK-2507","OBJECT_ID":"2021-036AS","EPOCH":"2024-02-07T00:12:42.631200","MEAN_MOTION":15.0640367,"ECCENTRICITY":0.0001429,"INCLINATION":53.0542,"RA_OF_ASC_NODE":270.9304,"ARG_OF_PERICENTER":82.3557,"MEAN_ANOMALY":277.7594,"EPHEMERIS_TYPE":0,"CLASSIFICATION_TYPE":"U","NORAD_CAT_ID":48316,"ELEMENT_SET_NO":999,"REV_AT_EPOCH":15401,"BSTAR":0.00011447,"MEAN_MOTION_DOT":1.424e-5,"MEAN_MOTION_DDOT":0},{"OBJECT_NAME":"STARLINK-2513","OBJECT_ID":"2021-036AT","EPOCH":"2024-02-07T01:42:56.354112","MEAN_MOTION":15.06398364,"ECCENTRICITY":0.0001344,"INCLINATION":53.0536,"RA_OF_ASC_NODE":270.6485,"ARG_OF_PERICENTER":103.2549,"MEAN_ANOMALY":256.859,"EPHEMERIS_TYPE":0,"CLASSIFICATION_TYPE":"U","NORAD_CAT_ID":48317,"ELEMENT_SET_NO":999,"REV_AT_EPOCH":15402,"BSTAR":8.8204e-5,"MEAN_MOTION_DOT":1.033e-5,"MEAN_MOTION_DDOT":0},{"OBJECT_NAME":"STARLINK-2509","OBJECT_ID":"2021-036AU","EPOCH":"2024-02-07T01:30:59.571936","MEAN_MOTION":15.06416159,"ECCENTRICITY":0.0001343,"INCLINATION":53.0531,"RA_OF_ASC_NODE":280.6902,"ARG_OF_PERICENTER":93.6958,"MEAN_ANOMALY":266.4185,"EPHEMERIS_TYPE":0,"CLASSIFICATION_TYPE":"U","NORAD_CAT_ID":48318,"ELEMENT_SET_NO":999,"REV_AT_EPOCH":15387,"BSTAR":0.00084207,"MEAN_MOTION_DOT":0.00012289,"MEAN_MOTION_DDOT":0},{"OBJECT_NAME":"STARLINK-2512","OBJECT_ID":"2021-036AV","EPOCH":"2024-02-06T22:13:15.182688","MEAN_MOTION":15.06410561,"ECCENTRICITY":0.0001374,"INCLINATION":53.0534,"RA_OF_ASC_NODE":281.2966,"ARG_OF_PERICENTER":83.9061,"MEAN_ANOMALY":276.2084,"EPHEMERIS_TYPE":0,"CLASSIFICATION_TYPE":"U","NORAD_CAT_ID":48319,"ELEMENT_SET_NO":999,"REV_AT_EPOCH":15321,"BSTAR":0.0008359,"MEAN_MOTION_DOT":0.00012195,"MEAN_MOTION_DDOT":0},{"OBJECT_NAME":"STARLINK-2029","OBJECT_ID":"2021-036AW","EPOCH":"2024-02-07T01:20:23.278272","MEAN_MOTION":15.06407501,"ECCENTRICITY":0.0001579,"INCLINATION":53.0544,"RA_OF_ASC_NODE":280.7261,"ARG_OF_PERICENTER":91.1851,"MEAN_ANOMALY":268.9319,"EPHEMERIS_TYPE":0,"CLASSIFICATION_TYPE":"U","NORAD_CAT_ID":48320,"ELEMENT_SET_NO":999,"REV_AT_EPOCH":15387,"BSTAR":0.00021872,"MEAN_MOTION_DOT":2.978e-5,"MEAN_MOTION_DDOT":0},{"OBJECT_NAME":"STARLINK-2457","OBJECT_ID":"2021-036AX","EPOCH":"2024-02-07T01:15:04.778496","MEAN_MOTION":15.06411329,"ECCENTRICITY":0.0001521,"INCLINATION":53.0536,"RA_OF_ASC_NODE":280.7418,"ARG_OF_PERICENTER":84.0226,"MEAN_ANOMALY":276.0936,"EPHEMERIS_TYPE":0,"CLASSIFICATION_TYPE":"U","NORAD_CAT_ID":48321,"ELEMENT_SET_NO":999,"REV_AT_EPOCH":15382,"BSTAR":0.00075787,"MEAN_MOTION_DOT":0.00011028,"MEAN_MOTION_DDOT":0},{"OBJECT_NAME":"STARLINK-2477","OBJECT_ID":"2021-036AY","EPOCH":"2024-02-07T01:09:46.721952","MEAN_MOTION":15.06403071,"ECCENTRICITY":0.0001432,"INCLINATION":53.054,"RA_OF_ASC_NODE":280.7621,"ARG_OF_PERICENTER":91.958,"MEAN_ANOMALY":268.1573,"EPHEMERIS_TYPE":0,"CLASSIFICATION_TYPE":"U","NORAD_CAT_ID":48322,"ELEMENT_SET_NO":999,"REV_AT_EPOCH":15382,"BSTAR":0.00064023,"MEAN_MOTION_DOT":9.268e-5,"MEAN_MOTION_DDOT":0},{"OBJECT_NAME":"STARLINK-2515","OBJECT_ID":"2021-036AZ","EPOCH":"2024-02-06T21:53:22.574112","MEAN_MOTION":15.06412373,"ECCENTRICITY":0.0001479,"INCLINATION":53.0549,"RA_OF_ASC_NODE":281.373,"ARG_OF_PERICENTER":107.5671,"MEAN_ANOMALY":252.548,"EPHEMERIS_TYPE":0,"CLASSIFICATION_TYPE":"U","NORAD_CAT_ID":48323,"ELEMENT_SET_NO":999,"REV_AT_EPOCH":15321,"BSTAR":0.00033335,"MEAN_MOTION_DOT":4.689e-5,"MEAN_MOTION_DDOT":0},{"OBJECT_NAME":"STARLINK-2527","OBJECT_ID":"2021-036BA","EPOCH":"2024-02-07T06:00:00.999648","MEAN_MOTION":15.23114022,"ECCENTRICITY":0.0001274,"INCLINATION":53.0546,"RA_OF_ASC_NODE":279.4667,"ARG_OF_PERICENTER":74.401,"MEAN_ANOMALY":180.5402,"EPHEMERIS_TYPE":0,"CLASSIFICATION_TYPE":"U","NORAD_CAT_ID":48324,"ELEMENT_SET_NO":999,"REV_AT_EPOCH":15385,"BSTAR":0.052419,"MEAN_MOTION_DOT":0.01360797,"MEAN_MOTION_DDOT":0},{"OBJECT_NAME":"STARLINK-2495","OBJECT_ID":"2021-036BB","EPOCH":"2024-02-06T21:42:46.146528","MEAN_MOTION":15.06402929,"ECCENTRICITY":0.0001317,"INCLINATION":53.0551,"RA_OF_ASC_NODE":281.4063,"ARG_OF_PERICENTER":92.6431,"MEAN_ANOMALY":267.4709,"EPHEMERIS_TYPE":0,"CLASSIFICATION_TYPE":"U","NORAD_CAT_ID":48325,"ELEMENT_SET_NO":999,"REV_AT_EPOCH":15321,"BSTAR":0.00019447,"MEAN_MOTION_DOT":2.617e-5,"MEAN_MOTION_DDOT":0},{"OBJECT_NAME":"STARLINK-2498","OBJECT_ID":"2021-036BC","EPOCH":"2024-02-07T02:24:04.432320","MEAN_MOTION":15.0640914,"ECCENTRICITY":0.0001347,"INCLINATION":53.054,"RA_OF_ASC_NODE":280.526,"ARG_OF_PERICENTER":89.4207,"MEAN_ANOMALY":270.6937,"EPHEMERIS_TYPE":0,"CLASSIFICATION_TYPE":"U","NORAD_CAT_ID":48326,"ELEMENT_SET_NO":999,"REV_AT_EPOCH":15383,"BSTAR":0.00037064,"MEAN_MOTION_DOT":5.245e-5,"MEAN_MOTION_DDOT":0},{"OBJECT_NAME":"STARLINK-2502","OBJECT_ID":"2021-036BD","EPOCH":"2024-02-06T21:32:09.229056","MEAN_MOTION":15.06406243,"ECCENTRICITY":0.0001454,"INCLINATION":53.054,"RA_OF_ASC_NODE":281.438,"ARG_OF_PERICENTER":81.3587,"MEAN_ANOMALY":278.7566,"EPHEMERIS_TYPE":0,"CLASSIFICATION_TYPE":"U","NORAD_CAT_ID":48327,"ELEMENT_SET_NO":999,"REV_AT_EPOCH":15321,"BSTAR":0.0005362,"MEAN_MOTION_DOT":7.715e-5,"MEAN_MOTION_DDOT":0}]
